IRIDIUM 57 [-]          
1 25273U 98019B   24047.89875020  .00000786  00000+0  26883-3 0  9992
2 25273  86.4010 348.9143 0002141  85.6339 274.5102 14.35088152355027
IRIDIUM 63 [-]          
1 25286U 98021B   24047.75840158  .00000618  00000+0  20763-3 0  9993
2 25286  86.3960 285.8990 0002209  82.2288 277.9159 14.35608139354036
IRIDIUM 69 [-]          
1 25319U 98026A   24047.76477779  .00000658  00000+0  20354-3 0  9991
2 25319  86.3982 300.6500 0002748 138.5963 221.5445 14.39802119353044
IRIDIUM 71 [-]          
1 25320U 98026B   24047.72235678  .00000730  00000+0  22521-3 0  9998
2 25320  86.3967 295.4564 0000482 172.3279 187.7927 14.40124132353557
IRIDIUM 73 [-]          
1 25344U 98032C   24047.94941918  .00000920  00000+0  23097-3 0  9996
2 25344  86.4380 252.9482 0002024 105.3038 254.8391 14.50297053360051
IRIDIUM 82 [-]          
1 25467U 98051A   24047.87233468  .00020260  00000+0  11040-2 0  9992
2 25467  86.3929 343.1064 0135391 306.0002  52.8742 15.06655852350208
IRIDIUM 2 [-]           
1 25527U 98066A   24047.94377666  .00079434  00000+0  11687-2 0  9996
2 25527  85.5143  20.9427 0008307  86.6266 273.5945 15.55128004388910
